{"type": "FeatureCollection", "features": [ {"type": "Feature", "properties": {"norad_id": 31168, "name": "FENGYUN 1C DEB", "group": "fengyun-1c-debris", "lat": -12.899322646246658, "lon": -75.08918446236542, "alt_km": 684.3253555814008, "timestamp": "2025-12-02T13:52:17.542810+00:00", "meta": {"OBJECT_NAME": "FENGYUN 1C DEB", "OBJECT_ID": "1999-025BHW", "EPOCH": "2025-12-01T20:38:19.940928", "MEAN_MOTION": 14.67192574, "ECCENTRICITY": 0.01091592, "INCLINATION": 98.8899, "RA_OF_ASC_NODE": 106.1867, "ARG_OF_PERICENTER": 97.2069, "MEAN_ANOMALY": 264.1558, "EPHEMERIS_TYPE": 0, "CLASSIFICATION_TYPE": "U", "NORAD_CAT_ID": 31168, "ELEMENT_SET_NO": 999, "REV_AT_EPOCH": 98961, "BSTAR": 0.00097237733, "MEAN_MOTION_DOT": 5.927e-05, "MEAN_MOTION_DDOT": 0}, "tle": {"line1": "1 31168U 99025BHW 25335.85995302  .00005927  00000+0  97238-3 0  9997", "line2": "2 31168  98.8899 106.1867 0109159  97.2069 264.1558 14.67192574989619"}}, "geometry": {"type": "Point", "coordinates": [-75.08918446236542, -12.899322646246658]}}, {"type": "Feature", "properties": {"norad_id": 31169, "name": "FENGYUN 1C DEB", "group": "fengyun-1c-debris", "lat": 72.54089920328705, "lon": -146.60000266992745, "alt_km": 774.4249464385739, "timestamp": "2025-12-02T13:52:17.542820+00:00", "meta": {"OBJECT_NAME": "FENGYUN 1C DEB", "OBJECT_ID": "1999-025BHX", "EPOCH": "2025-11-27T00:22:38.661600", "MEAN_MOTION": 14.26227458, "ECCENTRICITY": 0.00585141, "INCLINATION": 99.1571, "RA_OF_ASC_NODE": 356.7339, "ARG_OF_PERICENTER": 63.3086, "MEAN_ANOMALY": 297.4067, "EPHEMERIS_TYPE": 0, "CLASSIFICATION_TYPE": "U", "NORAD_CAT_ID": 31169, "ELEMENT_SET_NO": 999, "REV_AT_EPOCH": 56880, "BSTAR": 0.0023468028, "MEAN_MOTION_DOT": 5.684e-05, "MEAN_MOTION_DDOT": 0}, "tle": {"line1": "1 31169U 99025BHX 25331.01572525  .00005684  00000+0  23468-2 0  9993", "line2": "2 31169  99.1571 356.7339 0058514  63.3086 297.4067 14.26227458568802"}}, "geometry": {"type": "Point", "coordinates": [-146.60000266992745, 72.54089920328705]}}, {"type": "Feature", "properties": {"norad_id": 31171, "name": "FENGYUN 1C DEB", "group": "fengyun-1c-debris", "lat": -75.54042315990826, "lon": 113.85696892369222, "alt_km": 781.732930231683, "timestamp": "2025-12-02T13:52:17.542830+00:00", "meta": {"OBJECT_NAME": "FENGYUN 1C DEB", "OBJECT_ID": "1999-025BHZ", "EPOCH": "2025-12-01T17:22:59.057760", "MEAN_MOTION": 14.34250584, "ECCENTRICITY": 0.01564852, "INCLINATION": 98.0147, "RA_OF_ASC_NODE": 326.1842, "ARG_OF_PERICENTER": 349.8031, "MEAN_ANOMALY": 184.5738, "EPHEMERIS_TYPE": 0, "CLASSIFICATION_TYPE": "U", "NORAD_CAT_ID": 31171, "ELEMENT_SET_NO": 999, "REV_AT_EPOCH": 95672, "BSTAR": 0.0053219824, "MEAN_MOTION_DOT": 0.0001713, "MEAN_MOTION_DDOT": 0}, "tle": {"line1": "1 31171U 99025BHZ 25335.72429465  .00017130  00000+0  53220-2 0  9990", "line2": "2 31171  98.0147 326.1842 0156485 349.8031 184.5738 14.34250584956728"}}, "geometry": {"type": "Point", "coordinates": [113.85696892369222, -75.54042315990826]}}, {"type": "Feature", "properties": {"norad_id": 31172, "name": "FENGYUN 1C DEB", "group": "fengyun-1c-debris", "lat": -81.41991793612434, "lon": 82.1519655939373, "alt_km": 702.0981496043096, "timestamp": "2025-12-02T13:52:17.542839+00:00", "meta": {"OBJECT_NAME": "FENGYUN 1C DEB", "OBJECT_ID": "1999-025BJA", "EPOCH": "2025-12-01T18:09:28.245888", "MEAN_MOTION": 14.31493928, "ECCENTRICITY": 0.01482955, "INCLINATION": 98.4249, "RA_OF_ASC_NODE": 340.5526, "ARG_OF_PERICENTER": 301.3098, "MEAN_ANOMALY": 57.3638, "EPHEMERIS_TYPE": 0, "CLASSIFICATION_TYPE": "U", "NORAD_CAT_ID": 31172, "ELEMENT_SET_NO": 999, "REV_AT_EPOCH": 97469, "BSTAR": 0.00019124772, "MEAN_MOTION_DOT": 5.26e-06, "MEAN_MOTION_DDOT": 0}, "tle": {"line1": "1 31172U 99025BJA 25335.75657692  .00000526  00000+0  19125-3 0  9997", "line2": "2 31172  98.4249 340.5526 0148295 301.3098  57.3638 14.31493928974691"}}, "geometry": {"type": "Point", "coordinates": [82.1519655939373, -81.41991793612434]}}, {"type": "Feature", "properties": {"norad_id": 31175, "name": "FENGYUN 1C DEB", "group": "fengyun-1c-debris", "lat": -39.671701695342584, "lon": 149.59111383381682, "alt_km": 653.2269053310629, "timestamp": "2025-12-02T13:52:17.542852+00:00", "meta": {"OBJECT_NAME": "FENGYUN 1C DEB", "OBJECT_ID": "1999-025BJD", "EPOCH": "2025-12-01T05:36:03.301920", "MEAN_MOTION": 14.59321197, "ECCENTRICITY": 0.00740461, "INCLINATION": 98.3998, "RA_OF_ASC_NODE": 335.2699, "ARG_OF_PERICENTER": 201.7566, "MEAN_ANOMALY": 158.0484, "EPHEMERIS_TYPE": 0, "CLASSIFICATION_TYPE": "U", "NORAD_CAT_ID": 31175, "ELEMENT_SET_NO": 999, "REV_AT_EPOCH": 65471, "BSTAR": 0.0046478463, "MEAN_MOTION_DOT": 0.00022849, "MEAN_MOTION_DDOT": 0}, "tle": {"line1": "1 31175U 99025BJD 25335.23337155  .00022849  00000+0  46478-2 0  9994", "line2": "2 31175  98.3998 335.2699 0074046 201.7566 158.0484 14.59321197654715"}}, "geometry": {"type": "Point", "coordinates": [149.59111383381682, -39.671701695342584]}}, {"type": "Feature", "properties": {"norad_id": 31177, "name": "FENGYUN 1C DEB", "group": "fengyun-1c-debris", "lat": 13.437177544826147, "lon": 73.14284216638484, "alt_km": 1258.1835327572908, "timestamp": "2025-12-02T13:52:17.542863+00:00", "meta": {"OBJECT_NAME": "FENGYUN 1C DEB", "OBJECT_ID": "1999-025BJF", "EPOCH": "2025-12-01T06:04:03.773280", "MEAN_MOTION": 13.62101426, "ECCENTRICITY": 0.0311511, "INCLINATION": 98.7576, "RA_OF_ASC_NODE": 249.8401, "ARG_OF_PERICENTER": 343.5186, "MEAN_ANOMALY": 168.581, "EPHEMERIS_TYPE": 0, "CLASSIFICATION_TYPE": "U", "NORAD_CAT_ID": 31177, "ELEMENT_SET_NO": 999, "REV_AT_EPOCH": 66055, "BSTAR": 0.0077346, "MEAN_MOTION_DOT": 8.228e-05, "MEAN_MOTION_DDOT": 0}, "tle": {"line1": "1 31177U 99025BJF 25335.25282145  .00008228  00000+0  77346-2 0  9999", "line2": "2 31177  98.7576 249.8401 0311511 343.5186 168.5810 13.62101426660550"}}, "geometry": {"type": "Point", "coordinates": [73.14284216638484, 13.437177544826147]}}, {"type": "Feature", "properties": {"norad_id": 31178, "name": "FENGYUN 1C DEB", "group": "fengyun-1c-debris", "lat": -30.604363995704702, "lon": 152.32638725948192, "alt_km": 886.241351396543, "timestamp": "2025-12-02T13:52:17.542873+00:00", "meta": {"OBJECT_NAME": "FENGYUN 1C DEB", "OBJECT_ID": "1999-025BJG", "EPOCH": "2025-12-02T06:07:16.142880", "MEAN_MOTION": 14.2203149, "ECCENTRICITY": 0.01265093, "INCLINATION": 99.513, "RA_OF_ASC_NODE": 337.6705, "ARG_OF_PERICENTER": 345.2018, "MEAN_ANOMALY": 14.5468, "EPHEMERIS_TYPE": 0, "CLASSIFICATION_TYPE": "U", "NORAD_CAT_ID": 31178, "ELEMENT_SET_NO": 999, "REV_AT_EPOCH": 95666, "BSTAR": 0.0025713002, "MEAN_MOTION_DOT": 6.122e-05, "MEAN_MOTION_DDOT": 0}, "tle": {"line1": "1 31178U 99025BJG 25336.25504795  .00006122  00000+0  25713-2 0  9991", "line2": "2 31178  99.5130 337.6705 0126509 345.2018  14.5468 14.22031490956662"}}, "geometry": {"type": "Point", "coordinates": [152.32638725948192, -30.604363995704702]}}, {"type": "Feature", "properties": {"norad_id": 31179, "name": "FENGYUN 1C DEB", "group": "fengyun-1c-debris", "lat": 80.86656048770305, "lon": -84.36726366870265, "alt_km": 833.5718890456974, "timestamp": "2025-12-02T13:52:17.542883+00:00", "meta": {"OBJECT_NAME": "FENGYUN 1C DEB", "OBJECT_ID": "1999-025BJH", "EPOCH": "2025-12-01T18:29:09.804768", "MEAN_MOTION": 13.91871594, "ECCENTRICITY": 0.02157835, "INCLINATION": 99.0208, "RA_OF_ASC_NODE": 355.9885, "ARG_OF_PERICENTER": 30.6917, "MEAN_ANOMALY": 330.6661, "EPHEMERIS_TYPE": 0, "CLASSIFICATION_TYPE": "U", "NORAD_CAT_ID": 31179, "ELEMENT_SET_NO": 999, "REV_AT_EPOCH": 61788, "BSTAR": 0.0011957084, "MEAN_MOTION_DOT": 1.8e-05, "MEAN_MOTION_DDOT": 0}, "tle": {"line1": "1 31179U 99025BJH 25335.77025237  .00001800  00000+0  11957-2 0  9990", "line2": "2 31179  99.0208 355.9885 0215783  30.6917 330.6661 13.91871594617889"}}, "geometry": {"type": "Point", "coordinates": [-84.36726366870265, 80.86656048770305]}}, {"type": "Feature", "properties": {"norad_id": 31180, "name": "FENGYUN 1C DEB", "group": "fengyun-1c-debris", "lat": -78.86441582288242, "lon": -127.08269040528641, "alt_km": 1372.9645947149893, "timestamp": "2025-12-02T13:52:17.542893+00:00", "meta": {"OBJECT_NAME": "FENGYUN 1C DEB", "OBJECT_ID": "1999-025BJJ", "EPOCH": "2025-11-30T15:08:19.454208", "MEAN_MOTION": 13.70323575, "ECCENTRICITY": 0.0498477, "INCLINATION": 99.2169, "RA_OF_ASC_NODE": 106.6187, "ARG_OF_PERICENTER": 91.7474, "MEAN_ANOMALY": 290.9094, "EPHEMERIS_TYPE": 0, "CLASSIFICATION_TYPE": "U", "NORAD_CAT_ID": 31180, "ELEMENT_SET_NO": 999, "REV_AT_EPOCH": 63901, "BSTAR": 0.00026447, "MEAN_MOTION_DOT": 5.24e-06, "MEAN_MOTION_DDOT": 0}, "tle": {"line1": "1 31180U 99025BJJ 25334.63078072  .00000524  00000+0  26447-3 0  9994", "line2": "2 31180  99.2169 106.6187 0498477  91.7474 290.9094 13.70323575639019"}}, "geometry": {"type": "Point", "coordinates": [-127.08269040528641, -78.86441582288242]}}, {"type": "Feature", "properties": {"norad_id": 31181, "name": "FENGYUN 1C DEB", "group": "fengyun-1c-debris", "lat": 71.89177514430514, "lon": -18.845762477232313, "alt_km": 815.1719841575577, "timestamp": "2025-12-02T13:52:17.542903+00:00", "meta": {"OBJECT_NAME": "FENGYUN 1C DEB", "OBJECT_ID": "1999-025BJK", "EPOCH": "2025-11-26T13:40:01.687872", "MEAN_MOTION": 14.11809177, "ECCENTRICITY": 0.00486382, "INCLINATION": 98.7773, "RA_OF_ASC_NODE": 3.4699, "ARG_OF_PERICENTER": 119.5671, "MEAN_ANOMALY": 33.2423, "EPHEMERIS_TYPE": 0, "CLASSIFICATION_TYPE": "U", "NORAD_CAT_ID": 31181, "ELEMENT_SET_NO": 999, "REV_AT_EPOCH": 95539, "BSTAR": 0.0010936699, "MEAN_MOTION_DOT": 1.975e-05, "MEAN_MOTION_DDOT": 0}, "tle": {"line1": "1 31181U 99025BJK 25330.56946398  .00001975  00000+0  10937-2 0  9995", "line2": "2 31181  98.7773   3.4699 0048638 119.5671  33.2423 14.11809177955394"}}, "geometry": {"type": "Point", "coordinates": [-18.845762477232313, 71.89177514430514]}}]}